QIANFAN-17              
1 60395U 24140S   25342.80844345  .00000129  00000+0  18186-3 0  9994
2 60395  88.9767 299.8407 0013518 211.9686 148.0646 13.50976063 67608
QIANFAN-18              
1 60396U 24140T   25342.86192666  .00000122  00000+0  17072-3 0  9999
2 60396  88.9760 299.3690 0013340 192.6854 167.3964 13.50976097 67004
QIANFAN-19              
1 61552U 24185A   25342.83499419  .00001041  00000+0  53780-3 0  9993
2 61552  88.9822  78.3881 0005463 331.8773  28.2118 14.14291080 69112
QIANFAN-20              
1 61553U 24185B   25342.78142525  .00001086  00000+0  62121-3 0  9999
2 61553  88.9820  78.7141 0005803  18.2699 341.8692 14.08837653 68930
QIANFAN-21              
1 61554U 24185C   25342.81164738  .00001280  00000+0  56630-3 0  9998
2 61554  88.9737  77.4390 0011099  27.4414 332.7361 14.22600657 69415
QIANFAN-22              
1 61555U 24185D   25342.81994020  .00000366  00000+0  30505-3 0  9991
2 61555  88.9804  79.6750 0006759  25.4586 334.6916 13.86300947 68391
QIANFAN-23              
1 61556U 24185E   25342.81589013  .00000917  00000+0  45563-3 0  9996
2 61556  88.9814  78.2019 0006578 343.7528  16.3448 14.16287416 69199
QIANFAN-24              
1 61557U 24185F   25342.81762932  .00001382  00000+0  59823-3 0  9991
2 61557  88.9795  77.6131 0007753 320.0704  39.9917 14.23803437 69463
